start=new Date('2022-01-15T00:00:00.000Z').valueOf();
sats=[{"EPOCH":"2022-01-14T22:09:09.077472","CLASSIFICATION_TYPE":"U","SEMIMAJOR_AXIS":"6925.362","MEAN_MOTION_DDOT":"0.0000000000000","OBJECT_ID":"2020-088T","MEAN_MOTION_DOT":"0.00000211","ARG_OF_PERICENTER":"70.0351","CENTER_NAME":"EARTH","MEAN_ELEMENT_THEORY":"SGP4","DECAY_DATE":null,"LAUNCH_DATE":"2020-11-25","TLE_LINE2":"2 47139  53.0553 266.6764 0001972  70.0351 290.0850 15.06395777 63451","PERIAPSIS":"545.861","SITE":"AFETR","RCS_SIZE":"LARGE","INCLINATION":"53.0553","MEAN_MOTION":"15.06395777","REF_FRAME":"TEME","BSTAR":"0.00003310300000","COUNTRY_CODE":"US","TIME_SYSTEM":"UTC","GP_ID":"193878077","TLE_LINE1":"1 47139U 20088T   22014.92302173  .00000211  00000-0  33103-4 0  9996","PERIOD":"95.592","OBJECT_NAME":"STARLINK-1852","APOAPSIS":"548.592","OBJECT_TYPE":"PAYLOAD","REV_AT_EPOCH":"6345","FILE":"3273247","MEAN_ANOMALY":"290.0850","NORAD_CAT_ID":"47139","RA_OF_ASC_NODE":"266.6764","EPHEMERIS_TYPE":"0","ELEMENT_SET_NO":"999","ECCENTRICITY":"0.00019720"},{"ELEMENT_SET_NO":"999","ECCENTRICITY":"0.00082920","MEAN_ANOMALY":"168.8953","FILE":"3273247","REV_AT_EPOCH":"6464","NORAD_CAT_ID":"47140","RA_OF_ASC_NODE":"180.4606","EPHEMERIS_TYPE":"0","OBJECT_NAME":"STARLINK-1853","OBJECT_TYPE":"PAYLOAD","APOAPSIS":"299.463","TIME_SYSTEM":"UTC","GP_ID":"193878327","TLE_LINE1":"1 47140U 20088U   22014.69107108  .00145394  19126-4  41433-3 0  9992","PERIOD":"90.396","MEAN_MOTION":"15.92987441","REF_FRAME":"TEME","COUNTRY_CODE":"US","BSTAR":"0.00041433000000","TLE_LINE2":"2 47140  53.0421 180.4606 0008292 191.1891 168.8953 15.92987441 64649","PERIAPSIS":"288.398","SITE":"AFETR","INCLINATION":"53.0421","RCS_SIZE":"LARGE","OBJECT_ID":"2020-088U","MEAN_MOTION_DOT":"0.00145394","ARG_OF_PERICENTER":"191.1891","CENTER_NAME":"EARTH","MEAN_ELEMENT_THEORY":"SGP4","DECAY_DATE":null,"LAUNCH_DATE":"2020-11-25","EPOCH":"2022-01-14T16:35:08.541312","CLASSIFICATION_TYPE":"U","MEAN_MOTION_DDOT":"0.0000191260000","SEMIMAJOR_AXIS":"6672.065"},{"TLE_LINE2":"2 47141  53.0585 251.6093 0002245  71.8611 288.2622 15.06399782 63670","PERIAPSIS":"545.659","SITE":"AFETR","RCS_SIZE":"LARGE","INCLINATION":"53.0585","MEAN_MOTION":"15.06399782","REF_FRAME":"TEME","BSTAR":"0.00014237000000","COUNTRY_CODE":"US","EPOCH":"2022-01-14T22:25:46.700256","CLASSIFICATION_TYPE":"U","SEMIMAJOR_AXIS":"6925.349","MEAN_MOTION_DDOT":"0.0000000000000","OBJECT_ID":"2020-088V","ARG_OF_PERICENTER":"71.8611","MEAN_MOTION_DOT":"0.00001839","CENTER_NAME":"EARTH","MEAN_ELEMENT_THEORY":"SGP4","DECAY_DATE":null,"LAUNCH_DATE":"2020-11-25","REV_AT_EPOCH":"6367","FILE":"3273247","MEAN_ANOMALY":"288.2622","RA_OF_ASC_NODE":"251.6093","NORAD_CAT_ID":"47141","EPHEMERIS_TYPE":"0","ELEMENT_SET_NO":"999","ECCENTRICITY":"0.00022450","TIME_SYSTEM":"UTC","TLE_LINE1":"1 47141U 20088V   22014.93456829  .00001839  00000-0  14237-3 0  9991","GP_ID":"193879578","PERIOD":"95.592","OBJECT_NAME":"STARLINK-1854","APOAPSIS":"548.769","OBJECT_TYPE":"PAYLOAD"},{"PERIOD":"95.592","TIME_SYSTEM":"UTC","GP_ID":"193879829","TLE_LINE1":"1 47143U 20088X   22014.91612545  .00001121  00000-0  94158-4 0  9995","OBJECT_TYPE":"PAYLOAD","APOAPSIS":"548.799","OBJECT_NAME":"STARLINK-1856","EPHEMERIS_TYPE":"0","MEAN_ANOMALY":"292.6065","FILE":"3273247","REV_AT_EPOCH":"6366","NORAD_CAT_ID":"47143","RA_OF_ASC_NODE":"251.6905","ECCENTRICITY":"0.00023090","ELEMENT_SET_NO":"999","EPOCH":"2022-01-14T21:59:13.238880","CLASSIFICATION_TYPE":"U","MEAN_MOTION_DDOT":"0.0000000000000","SEMIMAJOR_AXIS":"6925.335","MEAN_ELEMENT_THEORY":"SGP4","DECAY_DATE":null,"LAUNCH_DATE":"2020-11-25","OBJECT_ID":"2020-088X","ARG_OF_PERICENTER":"67.5168","MEAN_MOTION_DOT":"0.00001121","CENTER_NAME":"EARTH","SITE":"AFETR","RCS_SIZE":"LARGE","INCLINATION":"53.0543","TLE_LINE2":"2 47143  53.0543 251.6905 0002309  67.5168 292.6065 15.06404403 63664","PERIAPSIS":"545.601","BSTAR":"0.00009415800000","COUNTRY_CODE":"US","MEAN_MOTION":"15.06404403","REF_FRAME":"TEME"},{"BSTAR":"0.00009909700000","COUNTRY_CODE":"US","MEAN_MOTION":"15.06403375","REF_FRAME":"TEME","SITE":"AFETR","INCLINATION":"53.0551","RCS_SIZE":"LARGE","TLE_LINE2":"2 47144  53.0551 241.7681 0002302  66.2330 293.8900 15.06403375 63809","PERIAPSIS":"545.609","DECAY_DATE":null,"MEAN_ELEMENT_THEORY":"SGP4","LAUNCH_DATE":"2020-11-25","OBJECT_ID":"2020-088Y","CENTER_NAME":"EARTH","ARG_OF_PERICENTER":"66.2330","MEAN_MOTION_DOT":"0.00001195","CLASSIFICATION_TYPE":"U","EPOCH":"2022-01-14T21:39:19.341216","SEMIMAJOR_AXIS":"6925.338","MEAN_MOTION_DDOT":"0.0000000000000","ECCENTRICITY":"0.00023020","ELEMENT_SET_NO":"999","EPHEMERIS_TYPE":"0","MEAN_ANOMALY":"293.8900","FILE":"3273247","REV_AT_EPOCH":"6380","RA_OF_ASC_NODE":"241.7681","NORAD_CAT_ID":"47144","APOAPSIS":"548.797","OBJECT_TYPE":"PAYLOAD","OBJECT_NAME":"STARLINK-1857","PERIOD":"95.592","TIME_SYSTEM":"UTC","GP_ID":"193878577","TLE_LINE1":"1 47144U 20088Y   22014.90230719  .00001195  00000-0  99097-4 0  9992"},{"PERIAPSIS":"528.636","TLE_LINE2":"2 47145  53.0557 241.7296 0006081 262.8581  97.1718 15.11102451 63807","RCS_SIZE":"LARGE","INCLINATION":"53.0557","SITE":"AFETR","REF_FRAME":"TEME","MEAN_MOTION":"15.11102451","COUNTRY_CODE":"US","BSTAR":"0.01106700000000","MEAN_MOTION_DDOT":"0.0000000000000","SEMIMAJOR_AXIS":"6910.974","CLASSIFICATION_TYPE":"U","EPOCH":"2022-01-14T21:13:53.456736","CENTER_NAME":"EARTH","ARG_OF_PERICENTER":"262.8581","MEAN_MOTION_DOT":"0.00192357","OBJECT_ID":"2020-088Z","LAUNCH_DATE":"2020-11-25","DECAY_DATE":null,"MEAN_ELEMENT_THEORY":"SGP4","RA_OF_ASC_NODE":"241.7296","NORAD_CAT_ID":"47145","REV_AT_EPOCH":"6380","FILE":"3273247","MEAN_ANOMALY":"97.1718","EPHEMERIS_TYPE":"0","ELEMENT_SET_NO":"999","ECCENTRICITY":"0.00060810","GP_ID":"193878827","TLE_LINE1":"1 47145U 20088Z   22014.88464649  .00192357  00000-0  11067-1 0  9990","TIME_SYSTEM":"UTC","PERIOD":"95.295","OBJECT_NAME":"STARLINK-1858","OBJECT_TYPE":"PAYLOAD","APOAPSIS":"537.041"},{"SITE":"AFETR","RCS_SIZE":"LARGE","INCLINATION":"53.0553","TLE_LINE2":"2 47146  53.0553 255.4769 0001412  55.4172 304.6970 15.52075774 63613","PERIAPSIS":"409.710","BSTAR":"0.00175740000000","COUNTRY_CODE":"US","MEAN_MOTION":"15.52075774","REF_FRAME":"TEME","EPOCH":"2022-01-14T22:19:13.382400","CLASSIFICATION_TYPE":"U","MEAN_MOTION_DDOT":"0.0000000000000","SEMIMAJOR_AXIS":"6788.803","MEAN_ELEMENT_THEORY":"SGP4","DECAY_DATE":null,"LAUNCH_DATE":"2020-11-25","OBJECT_ID":"2020-088AA","ARG_OF_PERICENTER":"55.4172","MEAN_MOTION_DOT":"0.00108896","CENTER_NAME":"EARTH","EPHEMERIS_TYPE":"0","FILE":"3273247","REV_AT_EPOCH":"6361","MEAN_ANOMALY":"304.6970","RA_OF_ASC_NODE":"255.4769","NORAD_CAT_ID":"47146","ECCENTRICITY":"0.00014120","ELEMENT_SET_NO":"999","PERIOD":"92.779","TIME_SYSTEM":"UTC","TLE_LINE1":"1 47146U 20088AA  22014.93001600  .00108896  00000-0  17574-2 0  9996","GP_ID":"193879079","APOAPSIS":"411.627","OBJECT_TYPE":"PAYLOAD","OBJECT_NAME":"STARLINK-1859"},{"LAUNCH_DATE":"2020-11-25","DECAY_DATE":null,"MEAN_ELEMENT_THEORY":"SGP4","CENTER_NAME":"EARTH","MEAN_MOTION_DOT":"0.00001852","ARG_OF_PERICENTER":"66.0732","OBJECT_ID":"2020-088AB","MEAN_MOTION_DDOT":"0.0000000000000","SEMIMAJOR_AXIS":"6925.368","CLASSIFICATION_TYPE":"U","EPOCH":"2022-01-14T22:13:49.391040","COUNTRY_CODE":"US","BSTAR":"0.00014324000000","REF_FRAME":"TEME","MEAN_MOTION":"15.06393657","RCS_SIZE":"LARGE","INCLINATION":"53.0544","SITE":"AFETR","PERIAPSIS":"545.630","TLE_LINE2":"2 47147  53.0544 261.6675 0002315  66.0732 294.0500 15.06393657 63536","OBJECT_TYPE":"PAYLOAD","APOAPSIS":"548.836","OBJECT_NAME":"STARLINK-1860","PERIOD":"95.593","TLE_LINE1":"1 47147U 20088AB  22014.92626610  .00001852  00000-0  14324-3 0  9995","GP_ID":"193879330","TIME_SYSTEM":"UTC","ECCENTRICITY":"0.00023150","ELEMENT_SET_NO":"999","EPHEMERIS_TYPE":"0","NORAD_CAT_ID":"47147","RA_OF_ASC_NODE":"261.6675","MEAN_ANOMALY":"294.0500","FILE":"3273247","REV_AT_EPOCH":"6353"},{"CLASSIFICATION_TYPE":"U","EPOCH":"2022-01-14T21:38:00.316320","MEAN_MOTION_DDOT":"0.0000000000000","SEMIMAJOR_AXIS":"6925.346","DECAY_DATE":null,"MEAN_ELEMENT_THEORY":"SGP4","LAUNCH_DATE":"2020-11-25","OBJECT_ID":"2020-088AC","CENTER_NAME":"EARTH","ARG_OF_PERICENTER":"70.0284","MEAN_MOTION_DOT":"0.00001821","SITE":"AFETR","INCLINATION":"53.0557","RCS_SIZE":"LARGE","TLE_LINE2":"2 47148  53.0557 251.7779 0002173  70.0284 290.0939 15.06400909 63660","PERIAPSIS":"545.706","BSTAR":"0.00014114000000","COUNTRY_CODE":"US","MEAN_MOTION":"15.06400909","REF_FRAME":"TEME","PERIOD":"95.592","TIME_SYSTEM":"UTC","TLE_LINE1":"1 47148U 20088AC  22014.90139255  .00001821  00000-0  14114-3 0  9991","GP_ID":"193878078","OBJECT_TYPE":"PAYLOAD","APOAPSIS":"548.716","OBJECT_NAME":"STARLINK-1861","EPHEMERIS_TYPE":"0","FILE":"3273247","REV_AT_EPOCH":"6366","MEAN_ANOMALY":"290.0939","NORAD_CAT_ID":"47148","RA_OF_ASC_NODE":"251.7779","ECCENTRICITY":"0.00021730","ELEMENT_SET_NO":"999"},{"OBJECT_ID":"2020-088AD","CENTER_NAME":"EARTH","ARG_OF_PERICENTER":"106.6952","MEAN_MOTION_DOT":"-0.00001891","DECAY_DATE":null,"MEAN_ELEMENT_THEORY":"SGP4","LAUNCH_DATE":"2020-11-25","CLASSIFICATION_TYPE":"U","EPOCH":"2022-01-14T22:19:07.946112","SEMIMAJOR_AXIS":"6925.322","MEAN_MOTION_DDOT":"0.0000000000000","MEAN_MOTION":"15.06408558","REF_FRAME":"TEME","BSTAR":"-0.00010801000000","COUNTRY_CODE":"US","TLE_LINE2":"2 47149  53.0547 261.6436 0002282 106.6952 253.4287 15.06408558 64263","PERIAPSIS":"545.607","SITE":"AFETR","RCS_SIZE":"LARGE","INCLINATION":"53.0547","OBJECT_NAME":"STARLINK-1862","APOAPSIS":"548.768","OBJECT_TYPE":"PAYLOAD","TIME_SYSTEM":"UTC","GP_ID":"193878328","TLE_LINE1":"1 47149U 20088AD  22014.92995308 -.00001891  00000-0 -10801-3 0  9991","PERIOD":"95.592","ELEMENT_SET_NO":"999","ECCENTRICITY":"0.00022820","REV_AT_EPOCH":"6426","FILE":"3273247","MEAN_ANOMALY":"253.4287","RA_OF_ASC_NODE":"261.6436","NORAD_CAT_ID":"47149","EPHEMERIS_TYPE":"0"}];
